{
  "type": "FeatureCollection",
  "crs": {
    "type": "name",
    "properties": { "name": "urn:ogc:def:crs:OGC:1.3:CRS84" }
  },
  "features": [
    {
      "type": "Feature",
      "id": "s01",
      "geometry": { "type": "Point", "coordinates": [79.0360, 30.5980] },
      "properties": {
        "id": "22222222-0000-0000-0000-000000000001",
        "name": "Sonprayag Higher Secondary School Shelter",
        "type": "Educational Complex",
        "total_capacity": 450,
        "current_occupancy": 35,
        "status": "AVAILABLE",
        "has_medical": true,
        "has_power_backup": true,
        "contact_person": "Capt. R. K. Joshi (Disaster Mgmt Warden)",
        "contact_phone": "+91-98765-11001"
      }
    },
    {
      "type": "Feature",
      "id": "s02",
      "geometry": { "type": "Point", "coordinates": [79.0250, 30.4990] },
      "properties": {
        "id": "22222222-0000-0000-0000-000000000002",
        "name": "Guptkashi Stadium Relief Camp",
        "type": "District Sports Compound",
        "total_capacity": 1200,
        "current_occupancy": 80,
        "status": "AVAILABLE",
        "has_medical": true,
        "has_power_backup": true,
        "contact_person": "Dr. Sunita Negi (CMO Station)",
        "contact_phone": "+91-98765-11002"
      }
    },
    {
      "type": "Feature",
      "id": "s03",
      "geometry": { "type": "Point", "coordinates": [79.0580, 30.5180] },
      "properties": {
        "id": "22222222-0000-0000-0000-000000000003",
        "name": "Ukhimath Omkareshwar Community Shelter",
        "type": "Temple Complex / Hall",
        "total_capacity": 700,
        "current_occupancy": 50,
        "status": "AVAILABLE",
        "has_medical": true,
        "has_power_backup": true,
        "contact_person": "Shri M. P. Rawat",
        "contact_phone": "+91-98765-11003"
      }
    },
    {
      "type": "Feature",
      "id": "s04",
      "geometry": { "type": "Point", "coordinates": [78.9890, 30.4010] },
      "properties": {
        "id": "22222222-0000-0000-0000-000000000004",
        "name": "Agastyamuni Degree College Shelter",
        "type": "Government College",
        "total_capacity": 1500,
        "current_occupancy": 120,
        "status": "AVAILABLE",
        "has_medical": true,
        "has_power_backup": true,
        "contact_person": "Prof. D. S. Chauhan",
        "contact_phone": "+91-98765-11004"
      }
    },
    {
      "type": "Feature",
      "id": "s05",
      "geometry": { "type": "Point", "coordinates": [78.9860, 30.2920] },
      "properties": {
        "id": "22222222-0000-0000-0000-000000000005",
        "name": "Rudraprayag District Disaster Center",
        "type": "Administrative Emergency Center",
        "total_capacity": 2000,
        "current_occupancy": 150,
        "status": "AVAILABLE",
        "has_medical": true,
        "has_power_backup": true,
        "contact_person": "Col. V. S. Bisht (NDRF Liaison)",
        "contact_phone": "+91-98765-11005"
      }
    },
    {
      "type": "Feature",
      "id": "s06",
      "geometry": { "type": "Point", "coordinates": [78.9300, 30.2720] },
      "properties": {
        "id": "22222222-0000-0000-0000-000000000006",
        "name": "Srinagar Garhwal University Relief Base",
        "type": "Auditorium / Campus",
        "total_capacity": 2500,
        "current_occupancy": 200,
        "status": "AVAILABLE",
        "has_medical": true,
        "has_power_backup": true,
        "contact_person": "Registrar Emergency Cell",
        "contact_phone": "+91-98765-11006"
      }
    },
    {
      "type": "Feature",
      "id": "s07",
      "geometry": { "type": "Point", "coordinates": [79.0850, 30.5710] },
      "properties": {
        "id": "22222222-0000-0000-0000-000000000007",
        "name": "Trijuginarayan High Ground Camp",
        "type": "Mountain Rest House",
        "total_capacity": 350,
        "current_occupancy": 20,
        "status": "AVAILABLE",
        "has_medical": false,
        "has_power_backup": true,
        "contact_person": "Tehsildar Incharge",
        "contact_phone": "+91-98765-11007"
      }
    },
    {
      "type": "Feature",
      "id": "s08",
      "geometry": { "type": "Point", "coordinates": [78.9380, 30.3800] },
      "properties": {
        "id": "22222222-0000-0000-0000-000000000008",
        "name": "Jakholi Block Primary Relief Shelter",
        "type": "Block Development Hall",
        "total_capacity": 500,
        "current_occupancy": 40,
        "status": "AVAILABLE",
        "has_medical": true,
        "has_power_backup": true,
        "contact_person": "BDO Jakholi",
        "contact_phone": "+91-98765-11008"
      }
    }
  ]
}
