{
  "type": "FeatureCollection",
  "crs": {
    "type": "name",
    "properties": {
      "name": "urn:ogc:def:crs:OGC:1.3:CRS84"
    }
  },
  "features": [
    {
      "type": "Feature",
      "id": "v01",
      "geometry": { "type": "Point", "coordinates": [79.0669, 30.7346] },
      "properties": {
        "id": "11111111-0000-0000-0000-000000000001",
        "name": "Kedarnath Settlement",
        "tehsil": "Ukhimath",
        "district": "Rudraprayag",
        "state": "Uttarakhand",
        "population": 1250,
        "elevation": 3584.0,
        "slope": 38.5,
        "distance_to_river": 0.12,
        "historical_flood_frequency": 0.45,
        "vulnerability_index": 0.85
      }
    },
    {
      "type": "Feature",
      "id": "v02",
      "geometry": { "type": "Point", "coordinates": [79.0612, 30.6821] },
      "properties": {
        "id": "11111111-0000-0000-0000-000000000002",
        "name": "Rambara Outpost",
        "tehsil": "Ukhimath",
        "district": "Rudraprayag",
        "state": "Uttarakhand",
        "population": 420,
        "elevation": 2740.0,
        "slope": 42.0,
        "distance_to_river": 0.08,
        "historical_flood_frequency": 0.50,
        "vulnerability_index": 0.90
      }
    },
    {
      "type": "Feature",
      "id": "v03",
      "geometry": { "type": "Point", "coordinates": [79.0528, 30.6355] },
      "properties": {
        "id": "11111111-0000-0000-0000-000000000003",
        "name": "Gaurikund",
        "tehsil": "Ukhimath",
        "district": "Rudraprayag",
        "state": "Uttarakhand",
        "population": 2800,
        "elevation": 1982.0,
        "slope": 32.0,
        "distance_to_river": 0.15,
        "historical_flood_frequency": 0.40,
        "vulnerability_index": 0.80
      }
    },
    {
      "type": "Feature",
      "id": "v04",
      "geometry": { "type": "Point", "coordinates": [79.0354, 30.5891] },
      "properties": {
        "id": "11111111-0000-0000-0000-000000000004",
        "name": "Sonprayag",
        "tehsil": "Ukhimath",
        "district": "Rudraprayag",
        "state": "Uttarakhand",
        "population": 3400,
        "elevation": 1829.0,
        "slope": 26.5,
        "distance_to_river": 0.18,
        "historical_flood_frequency": 0.38,
        "vulnerability_index": 0.75
      }
    },
    {
      "type": "Feature",
      "id": "v05",
      "geometry": { "type": "Point", "coordinates": [79.0125, 30.5512] },
      "properties": {
        "id": "11111111-0000-0000-0000-000000000005",
        "name": "Rampur Valley",
        "tehsil": "Ukhimath",
        "district": "Rudraprayag",
        "state": "Uttarakhand",
        "population": 1650,
        "elevation": 1680.0,
        "slope": 24.0,
        "distance_to_river": 0.35,
        "historical_flood_frequency": 0.28,
        "vulnerability_index": 0.65
      }
    },
    {
      "type": "Feature",
      "id": "v06",
      "geometry": { "type": "Point", "coordinates": [79.0018, 30.5280] },
      "properties": {
        "id": "11111111-0000-0000-0000-000000000006",
        "name": "Phata",
        "tehsil": "Ukhimath",
        "district": "Rudraprayag",
        "state": "Uttarakhand",
        "population": 4200,
        "elevation": 1500.0,
        "slope": 21.0,
        "distance_to_river": 0.45,
        "historical_flood_frequency": 0.25,
        "vulnerability_index": 0.60
      }
    },
    {
      "type": "Feature",
      "id": "v07",
      "geometry": { "type": "Point", "coordinates": [79.0221, 30.4950] },
      "properties": {
        "id": "11111111-0000-0000-0000-000000000007",
        "name": "Guptkashi",
        "tehsil": "Ukhimath",
        "district": "Rudraprayag",
        "state": "Uttarakhand",
        "population": 6800,
        "elevation": 1319.0,
        "slope": 18.0,
        "distance_to_river": 1.10,
        "historical_flood_frequency": 0.15,
        "vulnerability_index": 0.45
      }
    },
    {
      "type": "Feature",
      "id": "v08",
      "geometry": { "type": "Point", "coordinates": [79.0550, 30.5120] },
      "properties": {
        "id": "11111111-0000-0000-0000-000000000008",
        "name": "Ukhimath Ridge",
        "tehsil": "Ukhimath",
        "district": "Rudraprayag",
        "state": "Uttarakhand",
        "population": 5100,
        "elevation": 1311.0,
        "slope": 28.0,
        "distance_to_river": 1.45,
        "historical_flood_frequency": 0.12,
        "vulnerability_index": 0.40
      }
    },
    {
      "type": "Feature",
      "id": "v09",
      "geometry": { "type": "Point", "coordinates": [78.9880, 30.4720] },
      "properties": {
        "id": "11111111-0000-0000-0000-000000000009",
        "name": "Kund Junction",
        "tehsil": "Rudraprayag",
        "district": "Rudraprayag",
        "state": "Uttarakhand",
        "population": 2200,
        "elevation": 1050.0,
        "slope": 16.5,
        "distance_to_river": 0.10,
        "historical_flood_frequency": 0.42,
        "vulnerability_index": 0.82
      }
    },
    {
      "type": "Feature",
      "id": "v10",
      "geometry": { "type": "Point", "coordinates": [78.9720, 30.4350] },
      "properties": {
        "id": "11111111-0000-0000-0000-000000000010",
        "name": "Kakragad",
        "tehsil": "Rudraprayag",
        "district": "Rudraprayag",
        "state": "Uttarakhand",
        "population": 1400,
        "elevation": 980.0,
        "slope": 19.0,
        "distance_to_river": 0.22,
        "historical_flood_frequency": 0.35,
        "vulnerability_index": 0.70
      }
    },
    {
      "type": "Feature",
      "id": "v11",
      "geometry": { "type": "Point", "coordinates": [78.9610, 30.4120] },
      "properties": {
        "id": "11111111-0000-0000-0000-000000000011",
        "name": "Chandroti",
        "tehsil": "Rudraprayag",
        "district": "Rudraprayag",
        "state": "Uttarakhand",
        "population": 980,
        "elevation": 920.0,
        "slope": 22.0,
        "distance_to_river": 0.40,
        "historical_flood_frequency": 0.26,
        "vulnerability_index": 0.58
      }
    },
    {
      "type": "Feature",
      "id": "v12",
      "geometry": { "type": "Point", "coordinates": [78.9850, 30.3950] },
      "properties": {
        "id": "11111111-0000-0000-0000-000000000012",
        "name": "Agastyamuni",
        "tehsil": "Rudraprayag",
        "district": "Rudraprayag",
        "state": "Uttarakhand",
        "population": 11500,
        "elevation": 820.0,
        "slope": 12.0,
        "distance_to_river": 0.25,
        "historical_flood_frequency": 0.38,
        "vulnerability_index": 0.78
      }
    },
    {
      "type": "Feature",
      "id": "v13",
      "geometry": { "type": "Point", "coordinates": [78.9950, 30.3620] },
      "properties": {
        "id": "11111111-0000-0000-0000-000000000013",
        "name": "Tilwara Basin",
        "tehsil": "Rudraprayag",
        "district": "Rudraprayag",
        "state": "Uttarakhand",
        "population": 3600,
        "elevation": 780.0,
        "slope": 14.5,
        "distance_to_river": 0.15,
        "historical_flood_frequency": 0.40,
        "vulnerability_index": 0.76
      }
    },
    {
      "type": "Feature",
      "id": "v14",
      "geometry": { "type": "Point", "coordinates": [78.9810, 30.2850] },
      "properties": {
        "id": "11111111-0000-0000-0000-000000000014",
        "name": "Rudraprayag Confluence",
        "tehsil": "Rudraprayag",
        "district": "Rudraprayag",
        "state": "Uttarakhand",
        "population": 16000,
        "elevation": 610.0,
        "slope": 11.0,
        "distance_to_river": 0.10,
        "historical_flood_frequency": 0.44,
        "vulnerability_index": 0.85
      }
    },
    {
      "type": "Feature",
      "id": "v15",
      "geometry": { "type": "Point", "coordinates": [78.9450, 30.3120] },
      "properties": {
        "id": "11111111-0000-0000-0000-000000000015",
        "name": "Nagrasu Uplands",
        "tehsil": "Rudraprayag",
        "district": "Rudraprayag",
        "state": "Uttarakhand",
        "population": 1950,
        "elevation": 890.0,
        "slope": 23.5,
        "distance_to_river": 1.80,
        "historical_flood_frequency": 0.10,
        "vulnerability_index": 0.35
      }
    },
    {
      "type": "Feature",
      "id": "v16",
      "geometry": { "type": "Point", "coordinates": [78.9220, 30.2650] },
      "properties": {
        "id": "11111111-0000-0000-0000-000000000016",
        "name": "Srinagar Lowlands",
        "tehsil": "Srinagar",
        "district": "Pauri Garhwal",
        "state": "Uttarakhand",
        "population": 24000,
        "elevation": 560.0,
        "slope": 8.5,
        "distance_to_river": 0.30,
        "historical_flood_frequency": 0.36,
        "vulnerability_index": 0.80
      }
    },
    {
      "type": "Feature",
      "id": "v17",
      "geometry": { "type": "Point", "coordinates": [79.0820, 30.5650] },
      "properties": {
        "id": "11111111-0000-0000-0000-000000000017",
        "name": "Trijuginarayan Highs",
        "tehsil": "Ukhimath",
        "district": "Rudraprayag",
        "state": "Uttarakhand",
        "population": 1100,
        "elevation": 2180.0,
        "slope": 34.0,
        "distance_to_river": 2.60,
        "historical_flood_frequency": 0.08,
        "vulnerability_index": 0.30
      }
    },
    {
      "type": "Feature",
      "id": "v18",
      "geometry": { "type": "Point", "coordinates": [79.1150, 30.5420] },
      "properties": {
        "id": "11111111-0000-0000-0000-000000000018",
        "name": "Chopta Meadows",
        "tehsil": "Ukhimath",
        "district": "Rudraprayag",
        "state": "Uttarakhand",
        "population": 650,
        "elevation": 2680.0,
        "slope": 29.0,
        "distance_to_river": 3.80,
        "historical_flood_frequency": 0.05,
        "vulnerability_index": 0.25
      }
    },
    {
      "type": "Feature",
      "id": "v19",
      "geometry": { "type": "Point", "coordinates": [78.9320, 30.3750] },
      "properties": {
        "id": "11111111-0000-0000-0000-000000000019",
        "name": "Jakholi Slopes",
        "tehsil": "Jakholi",
        "district": "Rudraprayag",
        "state": "Uttarakhand",
        "population": 2900,
        "elevation": 1250.0,
        "slope": 25.0,
        "distance_to_river": 2.10,
        "historical_flood_frequency": 0.14,
        "vulnerability_index": 0.38
      }
    },
    {
      "type": "Feature",
      "id": "v20",
      "geometry": { "type": "Point", "coordinates": [78.9050, 30.3420] },
      "properties": {
        "id": "11111111-0000-0000-0000-000000000020",
        "name": "Chirbatiya Pass",
        "tehsil": "Jakholi",
        "district": "Rudraprayag",
        "state": "Uttarakhand",
        "population": 1350,
        "elevation": 1780.0,
        "slope": 31.0,
        "distance_to_river": 3.20,
        "historical_flood_frequency": 0.07,
        "vulnerability_index": 0.28
      }
    }
  ]
}
